ONEWEB-0395             
1 50475U 21132G   25282.45585510 -.00000365  00000+0 -10649-2 0  9999
2 50475  87.8805  71.0161 0001914  92.2386 267.8961 13.11417672182856
ONEWEB-0396             
1 50476U 21132H   25282.31940601  .00000050  00000+0  92876-4 0  9994
2 50476  87.9231  25.2674 0001730  96.8132 263.3197 13.18686781188579
ONEWEB-0397             
1 50477U 21132J   25282.33423543  .00000055  00000+0  10637-3 0  9997
2 50477  87.9225  25.2652 0001573  96.9985 263.1326 13.18688791188554
ONEWEB-0398             
1 50478U 21132K   25282.95771426  .00000151  00000+0  39143-3 0  9992
2 50478  87.8816  70.8838 0002042  97.6963 262.4397 13.11413094182816
ONEWEB-0399             
1 50479U 21132L   25282.86786924  .00000583  00000+0  16081-2 0  9996
2 50479  87.8807  70.9209 0001586  73.7066 286.4236 13.11416492182791
ONEWEB-0400             
1 50480U 21132M   25283.22331477  .00000149  00000+0  34455-3 0  9992
2 50480  87.9228  25.0787 0001973 102.5170 257.6183 13.18684303188668
ONEWEB-0401             
1 50481U 21132N   25282.35733530  .00000009  00000+0 -90917-5 0  9995
2 50481  87.9231  25.2477 0001579 102.4946 257.6363 13.18683552188556
ONEWEB-0402             
1 50482U 21132P   25282.32104005 -.00000074  00000+0 -21917-3 0  9997
2 50482  87.9225  25.2479 0001216 110.7549 249.3714 13.18687962188570
